0 OPS 4682 DEB
1 38418U 65027DX  13284.89148451  .00000037  00000-0  10000-3 0   447
2 38418 090.2725 250.8920 0010296 246.1089 114.1462 12.98992308496598
0 OPS 4682 DEB
1 38418U 65027DX  13285.89277278  .00000037  00000-0  10000-3 0   459
2 38418 090.3193 251.0048 0026483 211.7942 148.4367 12.98996731496726
0 OPS 4682 DEB
1 38418U 65027DX  13288.66565638  .00000037  00000-0  10000-3 0   468
2 38418 090.2895 251.0299 0025662 203.8189 156.2158 12.99001380497088
